IRIDIUM 39              
1 25042U 97069D   26003.41481723  .00001516  00000+0  38953-3 0  9998
2 25042  86.3933 125.3371 0017594   4.1950 355.9399 14.49547593477961
IRIDIUM 38              
1 25043U 97069E   26003.47474548  .00001016  00000+0  32751-3 0  9997
2 25043  86.3990 148.9693 0003228 127.0426 233.1067 14.38341952474746
IRIDIUM 42              
1 25077U 97077A   26003.44922005  .00000915  00000+0  30507-3 0  9990
2 25077  86.3995 155.3952 0002170 113.8968 246.2457 14.36557392469946
IRIDIUM 44              
1 25078U 97077B   26003.41843083  .00000877  00000+0  26986-3 0  9999
2 25078  86.3987 136.8082 0003901  91.6165 268.5481 14.40455830472522
IRIDIUM 45              
1 25104U 97082A   26003.36115672  .00050583  00000+0  13825-2 0  9991
2 25104  86.3551 310.0111 0091984 297.8888  61.3068 15.32930800482582
IRIDIUM 24              
1 25105U 97082B   26003.47816921  .00001038  00000+0  30801-3 0  9994
2 25105  86.3912 355.3264 0012903 129.0388 231.1963 14.42355583472084
IRIDIUM 51              
1 25262U 98018A   26003.33104468  .00184358  00000+0  15931-2 0  9992
2 25262  86.3729 315.1187 0046833 180.9009 179.2184 15.67210596478026
IRIDIUM 57              
1 25273U 98019B   26003.23328804  .00000648  00000+0  21604-3 0  9990
2 25273  86.3936  61.3728 0002281  96.3047 263.8410 14.36070613453495
